ONEWEB-0034             
1 45454U 20020AG  25319.72343311 -.00000044  00000+0 -15893-3 0  9998
2 45454  87.8871  63.5615 0001642 103.0962 257.0349 13.11419132274619
ONEWEB-0060             
1 45455U 20020AH  25319.69461150 -.00000294  00000+0 -86638-3 0  9999
2 45455  87.8860  63.5878 0002433 126.3112 233.8241 13.11415724274563
ONEWEB-0086             
1 45456U 20020AJ  25319.36823766  .00000313  00000+0  84618-3 0  9995
2 45456  87.8873  63.6292 0002413 108.2239 251.9151 13.11414462274587
ONEWEB-0088             
1 45457U 20020AK  25319.72766597 -.00000212  00000+0 -63347-3 0  9990
2 45457  87.8882  63.5102 0001614 106.1283 254.0023 13.11418669274568
ONEWEB-0102             
1 47258U 20100A   25319.67072737  .00000166  00000+0  42495-3 0  9997
2 47258  87.8976  33.1044 0001827  96.7687 263.3649 13.12441951236723
ONEWEB-0109             
1 47259U 20100B   25319.67883062 -.00000135  00000+0 -41178-3 0  9994
2 47259  87.8971  33.0697 0001840  98.8138 261.3199 13.12440701236552
ONEWEB-0110             
1 47260U 20100C   25319.62853463 -.00000477  00000+0 -13616-2 0  9997
2 47260  87.8972  33.0636 0002017 105.4352 254.6999 13.12443564236719
ONEWEB-0111             
1 47261U 20100D   25319.65936891  .00000397  00000+0  10669-2 0  9992
2 47261  87.8970  33.0753 0001798 100.6008 259.5323 13.12442108236558
ONEWEB-0114             
1 47262U 20100E   25319.61394001 -.00000332  00000+0 -95790-3 0  9990
2 47262  87.8974  33.0787 0001719  91.4527 268.6799 13.12441281236500
ONEWEB-0117             
1 47263U 20100F   25319.60584036 -.00000148  00000+0 -44796-3 0  9994
2 47263  87.8972  33.0783 0001783 102.4947 257.6381 13.12441132236516
ONEWEB-0118             
1 47264U 20100G   25319.63827836 -.00000158  00000+0 -47570-3 0  9990
2 47264  87.8972  33.0708 0001471  94.5041 265.6255 13.12443755236718
ONEWEB-0119             
1 47265U 20100H   25319.28467112  .00000240  00000+0  63120-3 0  9998
2 47265  87.8973  33.1775 0001868 101.1117 259.0221 13.12441429236642
ONEWEB-0120             
1 47266U 20100J   25319.45998365 -.00000438  00000+0 -12525-2 0  9990
2 47266  87.8964  33.1446 0001752  97.1887 262.9441 13.12442369236694
ONEWEB-0121             
1 47267U 20100K   25319.67721309 -.00000031  00000+0 -12140-3 0  9990
2 47267  87.8974  33.0677 0001926 104.7945 255.3397 13.12441181236635
ONEWEB-0122             
1 47268U 20100L   25319.44349811  .00000183  00000+0  47264-3 0  9991
2 47268  87.8972  33.1169 0001922  99.1042 261.0304 13.12441523236511
ONEWEB-0123             
1 47269U 20100M   25319.66747718  .00000298  00000+0  79262-3 0  9994
2 47269  87.8974  33.0997 0001662 102.6553 257.4762 13.12440827236681
ONEWEB-0124             
1 47270U 20100N   25319.65612348  .00000424  00000+0  11425-2 0  9992
2 47270  87.8972  33.1060 0001753 107.3629 252.7691 13.12442370236561
