[{"OBJECT_NAME":"ONEWEB-0034","OBJECT_ID":"2020-020AG","EPOCH":"2025-11-15T17:21:44.620704","MEAN_MOTION":13.11419132,"ECCENTRICITY":0.0001642,"INCLINATION":87.8871,"RA_OF_ASC_NODE":63.5615,"ARG_OF_PERICENTER":103.0962,"MEAN_ANOMALY":257.0349,"EPHEMERIS_TYPE":0,"CLASSIFICATION_TYPE":"U","NORAD_CAT_ID":45454,"ELEMENT_SET_NO":999,"REV_AT_EPOCH":27461,"BSTAR":-0.00015893,"MEAN_MOTION_DOT":-4.4e-7,"MEAN_MOTION_DDOT":0},{"OBJECT_NAME":"ONEWEB-0060","OBJECT_ID":"2020-020AH","EPOCH":"2025-11-15T16:40:14.433600","MEAN_MOTION":13.11415724,"ECCENTRICITY":0.0002433,"INCLINATION":87.886,"RA_OF_ASC_NODE":63.5878,"ARG_OF_PERICENTER":126.3112,"MEAN_ANOMALY":233.8241,"EPHEMERIS_TYPE":0,"CLASSIFICATION_TYPE":"U","NORAD_CAT_ID":45455,"ELEMENT_SET_NO":999,"REV_AT_EPOCH":27456,"BSTAR":-0.00086638,"MEAN_MOTION_DOT":-2.94e-6,"MEAN_MOTION_DDOT":0},{"OBJECT_NAME":"ONEWEB-0086","OBJECT_ID":"2020-020AJ","EPOCH":"2025-11-15T08:50:15.733824","MEAN_MOTION":13.11414462,"ECCENTRICITY":0.0002413,"INCLINATION":87.8873,"RA_OF_ASC_NODE":63.6292,"ARG_OF_PERICENTER":108.2239,"MEAN_ANOMALY":251.9151,"EPHEMERIS_TYPE":0,"CLASSIFICATION_TYPE":"U","NORAD_CAT_ID":45456,"ELEMENT_SET_NO":999,"REV_AT_EPOCH":27458,"BSTAR":0.00084618,"MEAN_MOTION_DOT":3.13e-6,"MEAN_MOTION_DDOT":0},{"OBJECT_NAME":"ONEWEB-0088","OBJECT_ID":"2020-020AK","EPOCH":"2025-11-15T17:27:50.339808","MEAN_MOTION":13.11418669,"ECCENTRICITY":0.0001614,"INCLINATION":87.8882,"RA_OF_ASC_NODE":63.5102,"ARG_OF_PERICENTER":106.1283,"MEAN_ANOMALY":254.0023,"EPHEMERIS_TYPE":0,"CLASSIFICATION_TYPE":"U","NORAD_CAT_ID":45457,"ELEMENT_SET_NO":999,"REV_AT_EPOCH":27456,"BSTAR":-0.00063347,"MEAN_MOTION_DOT":-2.12e-6,"MEAN_MOTION_DDOT":0},{"OBJECT_NAME":"ONEWEB-0102","OBJECT_ID":"2020-100A","EPOCH":"2025-11-15T16:05:50.844768","MEAN_MOTION":13.12441951,"ECCENTRICITY":0.0001827,"INCLINATION":87.8976,"RA_OF_ASC_NODE":33.1044,"ARG_OF_PERICENTER":96.7687,"MEAN_ANOMALY":263.3649,"EPHEMERIS_TYPE":0,"CLASSIFICATION_TYPE":"U","NORAD_CAT_ID":47258,"ELEMENT_SET_NO":999,"REV_AT_EPOCH":23672,"BSTAR":0.00042495,"MEAN_MOTION_DOT":1.66e-6,"MEAN_MOTION_DDOT":0},{"OBJECT_NAME":"ONEWEB-0109","OBJECT_ID":"2020-100B","EPOCH":"2025-11-15T16:17:30.965568","MEAN_MOTION":13.12440701,"ECCENTRICITY":0.000184,"INCLINATION":87.8971,"RA_OF_ASC_NODE":33.0697,"ARG_OF_PERICENTER":98.8138,"MEAN_ANOMALY":261.3199,"EPHEMERIS_TYPE":0,"CLASSIFICATION_TYPE":"U","NORAD_CAT_ID":47259,"ELEMENT_SET_NO":999,"REV_AT_EPOCH":23655,"BSTAR":-0.00041178,"MEAN_MOTION_DOT":-1.35e-6,"MEAN_MOTION_DDOT":0},{"OBJECT_NAME":"ONEWEB-0110","OBJECT_ID":"2020-100C","EPOCH":"2025-11-15T15:05:05.392032","MEAN_MOTION":13.12443564,"ECCENTRICITY":0.0002017,"INCLINATION":87.8972,"RA_OF_ASC_NODE":33.0636,"ARG_OF_PERICENTER":105.4352,"MEAN_ANOMALY":254.6999,"EPHEMERIS_TYPE":0,"CLASSIFICATION_TYPE":"U","NORAD_CAT_ID":47260,"ELEMENT_SET_NO":999,"REV_AT_EPOCH":23671,"BSTAR":-0.0013616,"MEAN_MOTION_DOT":-4.77e-6,"MEAN_MOTION_DDOT":0},{"OBJECT_NAME":"ONEWEB-0111","OBJECT_ID":"2020-100D","EPOCH":"2025-11-15T15:49:29.473824","MEAN_MOTION":13.12442108,"ECCENTRICITY":0.0001798,"INCLINATION":87.897,"RA_OF_ASC_NODE":33.0753,"ARG_OF_PERICENTER":100.6008,"MEAN_ANOMALY":259.5323,"EPHEMERIS_TYPE":0,"CLASSIFICATION_TYPE":"U","NORAD_CAT_ID":47261,"ELEMENT_SET_NO":999,"REV_AT_EPOCH":23655,"BSTAR":0.0010669,"MEAN_MOTION_DOT":3.97e-6,"MEAN_MOTION_DDOT":0},{"OBJECT_NAME":"ONEWEB-0114","OBJECT_ID":"2020-100E","EPOCH":"2025-11-15T14:44:04.416864","MEAN_MOTION":13.12441281,"ECCENTRICITY":0.0001719,"INCLINATION":87.8974,"RA_OF_ASC_NODE":33.0787,"ARG_OF_PERICENTER":91.4527,"MEAN_ANOMALY":268.6799,"EPHEMERIS_TYPE":0,"CLASSIFICATION_TYPE":"U","NORAD_CAT_ID":47262,"ELEMENT_SET_NO":999,"REV_AT_EPOCH":23650,"BSTAR":-0.0009579,"MEAN_MOTION_DOT":-3.32e-6,"MEAN_MOTION_DDOT":0},{"OBJECT_NAME":"ONEWEB-0117","OBJECT_ID":"2020-100F","EPOCH":"2025-11-15T14:32:24.607104","MEAN_MOTION":13.12441132,"ECCENTRICITY":0.0001783,"INCLINATION":87.8972,"RA_OF_ASC_NODE":33.0783,"ARG_OF_PERICENTER":102.4947,"MEAN_ANOMALY":257.6381,"EPHEMERIS_TYPE":0,"CLASSIFICATION_TYPE":"U","NORAD_CAT_ID":47263,"ELEMENT_SET_NO":999,"REV_AT_EPOCH":23651,"BSTAR":-0.00044796,"MEAN_MOTION_DOT":-1.48e-6,"MEAN_MOTION_DDOT":0},{"OBJECT_NAME":"ONEWEB-0118","OBJECT_ID":"2020-100G","EPOCH":"2025-11-15T15:19:07.250304","MEAN_MOTION":13.12443755,"ECCENTRICITY":0.0001471,"INCLINATION":87.8972,"RA_OF_ASC_NODE":33.0708,"ARG_OF_PERICENTER":94.5041,"MEAN_ANOMALY":265.6255,"EPHEMERIS_TYPE":0,"CLASSIFICATION_TYPE":"U","NORAD_CAT_ID":47264,"ELEMENT_SET_NO":999,"REV_AT_EPOCH":23671,"BSTAR":-0.0004757,"MEAN_MOTION_DOT":-1.58e-6,"MEAN_MOTION_DDOT":0},{"OBJECT_NAME":"ONEWEB-0119","OBJECT_ID":"2020-100H","EPOCH":"2025-11-15T06:49:55.584768","MEAN_MOTION":13.12441429,"ECCENTRICITY":0.0001868,"INCLINATION":87.8973,"RA_OF_ASC_NODE":33.1775,"ARG_OF_PERICENTER":101.1117,"MEAN_ANOMALY":259.0221,"EPHEMERIS_TYPE":0,"CLASSIFICATION_TYPE":"U","NORAD_CAT_ID":47265,"ELEMENT_SET_NO":999,"REV_AT_EPOCH":23664,"BSTAR":0.0006312,"MEAN_MOTION_DOT":2.4e-6,"MEAN_MOTION_DDOT":0},{"OBJECT_NAME":"ONEWEB-0120","OBJECT_ID":"2020-100J","EPOCH":"2025-11-15T11:02:22.587360","MEAN_MOTION":13.12442369,"ECCENTRICITY":0.0001752,"INCLINATION":87.8964,"RA_OF_ASC_NODE":33.1446,"ARG_OF_PERICENTER":97.1887,"MEAN_ANOMALY":262.9441,"EPHEMERIS_TYPE":0,"CLASSIFICATION_TYPE":"U","NORAD_CAT_ID":47266,"ELEMENT_SET_NO":999,"REV_AT_EPOCH":23669,"BSTAR":-0.0012525,"MEAN_MOTION_DOT":-4.38e-6,"MEAN_MOTION_DDOT":0},{"OBJECT_NAME":"ONEWEB-0121","OBJECT_ID":"2020-100K","EPOCH":"2025-11-15T16:15:11.210976","MEAN_MOTION":13.12441181,"ECCENTRICITY":0.0001926,"INCLINATION":87.8974,"RA_OF_ASC_NODE":33.0677,"ARG_OF_PERICENTER":104.7945,"MEAN_ANOMALY":255.3397,"EPHEMERIS_TYPE":0,"CLASSIFICATION_TYPE":"U","NORAD_CAT_ID":47267,"ELEMENT_SET_NO":999,"REV_AT_EPOCH":23663,"BSTAR":-0.0001214,"MEAN_MOTION_DOT":-3.1e-7,"MEAN_MOTION_DDOT":0},{"OBJECT_NAME":"ONEWEB-0122","OBJECT_ID":"2020-100L","EPOCH":"2025-11-15T10:38:38.236704","MEAN_MOTION":13.12441523,"ECCENTRICITY":0.0001922,"INCLINATION":87.8972,"RA_OF_ASC_NODE":33.1169,"ARG_OF_PERICENTER":99.1042,"MEAN_ANOMALY":261.0304,"EPHEMERIS_TYPE":0,"CLASSIFICATION_TYPE":"U","NORAD_CAT_ID":47268,"ELEMENT_SET_NO":999,"REV_AT_EPOCH":23651,"BSTAR":0.00047264,"MEAN_MOTION_DOT":1.83e-6,"MEAN_MOTION_DDOT":0},{"OBJECT_NAME":"ONEWEB-0123","OBJECT_ID":"2020-100M","EPOCH":"2025-11-15T16:01:10.028352","MEAN_MOTION":13.12440827,"ECCENTRICITY":0.0001662,"INCLINATION":87.8974,"RA_OF_ASC_NODE":33.0997,"ARG_OF_PERICENTER":102.6553,"MEAN_ANOMALY":257.4762,"EPHEMERIS_TYPE":0,"CLASSIFICATION_TYPE":"U","NORAD_CAT_ID":47269,"ELEMENT_SET_NO":999,"REV_AT_EPOCH":23668,"BSTAR":0.00079262,"MEAN_MOTION_DOT":2.98e-6,"MEAN_MOTION_DDOT":0},{"OBJECT_NAME":"ONEWEB-0124","OBJECT_ID":"2020-100N","EPOCH":"2025-11-15T15:44:49.068672","MEAN_MOTION":13.1244237,"ECCENTRICITY":0.0001753,"INCLINATION":87.8972,"RA_OF_ASC_NODE":33.106,"ARG_OF_PERICENTER":107.3629,"MEAN_ANOMALY":252.7691,"EPHEMERIS_TYPE":0,"CLASSIFICATION_TYPE":"U","NORAD_CAT_ID":47270,"ELEMENT_SET_NO":999,"REV_AT_EPOCH":23656,"BSTAR":0.0011425,"MEAN_MOTION_DOT":4.24e-6,"MEAN_MOTION_DDOT":0}]
